{
  "type": "FeatureCollection",
  "features": [
    {
      "type": "Feature",
      "properties": {
        "norad_id": 66849,
        "name": "STARLINK-36102",
        "group": "last-30-days",
        "lat": 28.48473899559837,
        "lon": -174.64081732616205,
        "alt_km": 410.84380059052637,
        "timestamp": "2025-12-26T04:40:04.512014+00:00",
        "meta_object_name": "STARLINK-36102",
        "meta_object_id": "2025-281B",
        "meta_epoch": "2025-12-25T22:00:01.999584",
        "meta_mean_motion": 15.50776674,
        "meta_eccentricity": 0.00012253,
        "meta_inclination": 43.0006,
        "meta_ra_of_asc_node": 42.596,
        "meta_arg_of_pericenter": 242.2606,
        "meta_mean_anomaly": 140.6193,
        "meta_ephemeris_type": 0,
        "meta_classification_type": "U",
        "meta_norad_cat_id": 66849,
        "meta_element_set_no": 999,
        "meta_rev_at_epoch": 350,
        "meta_bstar": -0.0070170828,
        "meta_mean_motion_dot": -0.00394687,
        "meta_mean_motion_ddot": 0,
        "tle_line1": "1 66849U 25281B   25359.91668981 -.00394687  00000+0 -70171-2 0  9999",
        "tle_line2": "2 66849  43.0006  42.5960 0001225 242.2606 140.6193 15.50776674  3506"
      },
      "geometry": {
        "type": "Point",
        "coordinates": [
          -174.64081732616205,
          28.48473899559837
        ]
      }
    },
    {
      "type": "Feature",
      "properties": {
        "norad_id": 66850,
        "name": "STARLINK-36105",
        "group": "last-30-days",
        "lat": 27.411621417045584,
        "lon": -172.84974523198088,
        "alt_km": 410.9238089314631,
        "timestamp": "2025-12-26T04:40:04.512024+00:00",
        "meta_object_name": "STARLINK-36105",
        "meta_object_id": "2025-281C",
        "meta_epoch": "2025-12-25T22:00:01.999584",
        "meta_mean_motion": 15.50776062,
        "meta_eccentricity": 0.00010929,
        "meta_inclination": 43.0007,
        "meta_ra_of_asc_node": 42.5915,
        "meta_arg_of_pericenter": 239.7105,
        "meta_mean_anomaly": 145.0803,
        "meta_ephemeris_type": 0,
        "meta_classification_type": "U",
        "meta_norad_cat_id": 66850,
        "meta_element_set_no": 999,
        "meta_rev_at_epoch": 350,
        "meta_bstar": -0.0069209341,
        "meta_mean_motion_dot": -0.0038952,
        "meta_mean_motion_ddot": 0,
        "tle_line1": "1 66850U 25281C   25359.91668981 -.00389520  00000+0 -69209-2 0  9991",
        "tle_line2": "2 66850  43.0007  42.5915 0001092 239.7105 145.0803 15.50776062  3504"
      },
      "geometry": {
        "type": "Point",
        "coordinates": [
          -172.84974523198088,
          27.411621417045584
        ]
      }
    },
    {
      "type": "Feature",
      "properties": {
        "norad_id": 66851,
        "name": "STARLINK-36094",
        "group": "last-30-days",
        "lat": 26.312256318413553,
        "lon": -171.08860817622644,
        "alt_km": 411.22073600319527,
        "timestamp": "2025-12-26T04:40:04.512033+00:00",
        "meta_object_name": "STARLINK-36094",
        "meta_object_id": "2025-281D",
        "meta_epoch": "2025-12-25T22:00:01.999584",
        "meta_mean_motion": 15.50777113,
        "meta_eccentricity": 0.0001016,
        "meta_inclination": 43.0006,
        "meta_ra_of_asc_node": 42.5864,
        "meta_arg_of_pericenter": 250.881,
        "meta_mean_anomaly": 135.8305,
        "meta_ephemeris_type": 0,
        "meta_classification_type": "U",
        "meta_norad_cat_id": 66851,
        "meta_element_set_no": 999,
        "meta_rev_at_epoch": 350,
        "meta_bstar": -0.0071618989,
        "meta_mean_motion_dot": -0.00402426,
        "meta_mean_motion_ddot": 0,
        "tle_line1": "1 66851U 25281D   25359.91668981 -.00402426  00000+0 -71619-2 0  9991",
        "tle_line2": "2 66851  43.0006  42.5864 0001016 250.8810 135.8305 15.50777113  3502"
      },
      "geometry": {
        "type": "Point",
        "coordinates": [
          -171.08860817622644,
          26.312256318413553
        ]
      }
    },
    {
      "type": "Feature",
      "properties": {
        "norad_id": 66852,
        "name": "STARLINK-35992",
        "group": "last-30-days",
        "lat": 25.207243227088842,
        "lon": -169.38362401450416,
        "alt_km": 411.3987204929099,
        "timestamp": "2025-12-26T04:40:04.512047+00:00",
        "meta_object_name": "STARLINK-35992",
        "meta_object_id": "2025-281E",
        "meta_epoch": "2025-12-25T22:00:01.999584",
        "meta_mean_motion": 15.50732975,
        "meta_eccentricity": 5.059e-05,
        "meta_inclination": 43.0006,
        "meta_ra_of_asc_node": 42.5821,
        "meta_arg_of_pericenter": 258.2961,
        "meta_mean_anomaly": 130.3414,
        "meta_ephemeris_type": 0,
        "meta_classification_type": "U",
        "meta_norad_cat_id": 66852,
        "meta_element_set_no": 999,
        "meta_rev_at_epoch": 350,
        "meta_bstar": -0.0068336535,
        "meta_mean_motion_dot": -0.00384243,
        "meta_mean_motion_ddot": 0,
        "tle_line1": "1 66852U 25281E   25359.91668981 -.00384243  00000+0 -68337-2 0  9991",
        "tle_line2": "2 66852  43.0006  42.5821 0000505 258.2961 130.3414 15.50732975  3505"
      },
      "geometry": {
        "type": "Point",
        "coordinates": [
          -169.38362401450416,
          25.207243227088842
        ]
      }
    },
    {
      "type": "Feature",
      "properties": {
        "norad_id": 66853,
        "name": "STARLINK-35986",
        "group": "last-30-days",
        "lat": 24.07040871728647,
        "lon": -167.6919622222926,
        "alt_km": 411.57965519207846,
        "timestamp": "2025-12-26T04:40:04.512057+00:00",
        "meta_object_name": "STARLINK-35986",
        "meta_object_id": "2025-281F",
        "meta_epoch": "2025-12-25T22:00:01.999584",
        "meta_mean_motion": 15.5073458,
        "meta_eccentricity": 4.762e-05,
        "meta_inclination": 43.0007,
        "meta_ra_of_asc_node": 42.5771,
        "meta_arg_of_pericenter": 262.1986,
        "meta_mean_anomaly": 128.3514,
        "meta_ephemeris_type": 0,
        "meta_classification_type": "U",
        "meta_norad_cat_id": 66853,
        "meta_element_set_no": 999,
        "meta_rev_at_epoch": 350,
        "meta_bstar": -0.0068592267,
        "meta_mean_motion_dot": -0.00385632,
        "meta_mean_motion_ddot": 0,
        "tle_line1": "1 66853U 25281F   25359.91668981 -.00385632  00000+0 -68592-2 0  9998",
        "tle_line2": "2 66853  43.0007  42.5771 0000476 262.1986 128.3514 15.50734580  3501"
      },
      "geometry": {
        "type": "Point",
        "coordinates": [
          -167.6919622222926,
          24.07040871728647
        ]
      }
    },
    {
      "type": "Feature",
      "properties": {
        "norad_id": 66854,
        "name": "STARLINK-36087",
        "group": "last-30-days",
        "lat": 22.91273237641239,
        "lon": -166.02737444344396,
        "alt_km": 411.7783457385867,
        "timestamp": "2025-12-26T04:40:04.512069+00:00",
        "meta_object_name": "STARLINK-36087",
        "meta_object_id": "2025-281G",
        "meta_epoch": "2025-12-25T22:00:01.999584",
        "meta_mean_motion": 15.5073723,
        "meta_eccentricity": 5.336e-05,
        "meta_inclination": 43.0006,
        "meta_ra_of_asc_node": 42.5718,
        "meta_arg_of_pericenter": 263.0049,
        "meta_mean_anomaly": 129.4621,
        "meta_ephemeris_type": 0,
        "meta_classification_type": "U",
        "meta_norad_cat_id": 66854,
        "meta_element_set_no": 999,
        "meta_rev_at_epoch": 350,
        "meta_bstar": -0.0069214974,
        "meta_mean_motion_dot": -0.00389005,
        "meta_mean_motion_ddot": 0,
        "tle_line1": "1 66854U 25281G   25359.91668981 -.00389005  00000+0 -69215-2 0  9990",
        "tle_line2": "2 66854  43.0006  42.5718 0000533 263.0049 129.4621 15.50737230  3502"
      },
      "geometry": {
        "type": "Point",
        "coordinates": [
          -166.02737444344396,
          22.91273237641239
        ]
      }
    },
    {
      "type": "Feature",
      "properties": {
        "norad_id": 66855,
        "name": "STARLINK-36090",
        "group": "last-30-days",
        "lat": 21.736794588553177,
        "lon": -164.3889559777505,
        "alt_km": 412.05753075758366,
        "timestamp": "2025-12-26T04:40:04.512079+00:00",
        "meta_object_name": "STARLINK-36090",
        "meta_object_id": "2025-281H",
        "meta_epoch": "2025-12-25T22:00:01.999584",
        "meta_mean_motion": 15.50744985,
        "meta_eccentricity": 6.64e-05,
        "meta_inclination": 43.0006,
        "meta_ra_of_asc_node": 42.5672,
        "meta_arg_of_pericenter": 273.7281,
        "meta_mean_anomaly": 120.6541,
        "meta_ephemeris_type": 0,
        "meta_classification_type": "U",
        "meta_norad_cat_id": 66855,
        "meta_element_set_no": 999,
        "meta_rev_at_epoch": 338,
        "meta_bstar": -0.0070634804,
        "meta_mean_motion_dot": -0.00396709,
        "meta_mean_motion_ddot": 0,
        "tle_line1": "1 66855U 25281H   25359.91668981 -.00396709  00000+0 -70635-2 0  9998",
        "tle_line2": "2 66855  43.0006  42.5672 0000664 273.7281 120.6541 15.50744985  3388"
      },
      "geometry": {
        "type": "Point",
        "coordinates": [
          -164.3889559777505,
          21.736794588553177
        ]
      }
    }
  ]
}